{
    "links": {
        "self": "http://www.neowsapp.com/rest/v1/neo/3753584?api_key=iIulBulltgU6a56xZRHN4H3l9WmuAYTsLGpBGhQ2"
    },
    "id": "3753584",
    "neo_reference_id": "3753584",
    "name": "(2016 JN38)",
    "designation": "2016 JN38",
    "nasa_jpl_url": "http://ssd.jpl.nasa.gov/sbdb.cgi?sstr=3753584",
    "absolute_magnitude_h": 29.077,
    "estimated_diameter": {
        "kilometers": {
            "estimated_diameter_min": 0.0040658839,
            "estimated_diameter_max": 0.0090915929
        },
        "meters": {
            "estimated_diameter_min": 4.0658839306,
            "estimated_diameter_max": 9.0915928574
        },
        "miles": {
            "estimated_diameter_min": 0.0025264224,
            "estimated_diameter_max": 0.0056492521
        },
        "feet": {
            "estimated_diameter_min": 13.3395146348,
            "estimated_diameter_max": 29.8280615103
        }
    },
    "is_potentially_hazardous_asteroid": false,
    "close_approach_data": [
        {
            "close_approach_date": "2016-04-30",
            "close_approach_date_full": "2016-Apr-30 02:27",
            "epoch_date_close_approach": 1461983220000,
            "relative_velocity": {
                "kilometers_per_second": "19.7867469272",
                "kilometers_per_hour": "71232.2889380395",
                "miles_per_hour": "44260.9742015279"
            },
            "miss_distance": {
                "astronomical": "0.0032879493",
                "lunar": "1.2790122777",
                "kilometers": "491870.211947991",
                "miles": "305633.9772686358"
            },
            "orbiting_body": "Earth"
        },
        {
            "close_approach_date": "2016-04-30",
            "close_approach_date_full": "2016-Apr-30 02:30",
            "epoch_date_close_approach": 1461983400000,
            "relative_velocity": {
                "kilometers_per_second": "20.7943198626",
                "kilometers_per_hour": "74859.5515053424",
                "miles_per_hour": "46514.814100639"
            },
            "miss_distance": {
                "astronomical": "0.0048577852",
                "lunar": "1.8896784428",
                "kilometers": "726714.318837524",
                "miles": "451559.3386408712"
            },
            "orbiting_body": "Moon"
        }
    ],
    "orbital_data": {
        "orbit_id": "3",
        "orbit_determination_date": "2017-04-06 08:25:49",
        "first_observation_date": "2016-05-03",
        "last_observation_date": "2016-05-04",
        "data_arc_in_days": 1,
        "observations_used": 15,
        "orbit_uncertainty": "9",
        "minimum_orbit_intersection": ".00298034",
        "jupiter_tisserand_invariant": "3.588",
        "epoch_osculation": "2457512.5",
        "eccentricity": ".6823774434128891",
        "semi_major_axis": "1.926340795105846",
        "inclination": "4.447268358473432",
        "ascending_node_longitude": "42.05761574452954",
        "orbital_period": "976.5581523627641",
        "perihelion_distance": ".6118492881995666",
        "perihelion_argument": "89.61425836035775",
        "aphelion_distance": "3.240832302012124",
        "perihelion_time": "2457460.583781149848",
        "mean_anomaly": "19.1384801210609",
        "mean_motion": ".368641641185409",
        "equinox": "J2000",
        "orbit_class": {
            "orbit_class_type": "APO",
            "orbit_class_description": "Near-Earth asteroid orbits which cross the Earth’s orbit similar to that of 1862 Apollo",
            "orbit_class_range": "a (semi-major axis) > 1.0 AU; q (perihelion) < 1.017 AU"
        }
    },
    "is_sentry_object": false
}